ONEWEB-0395             
1 50475U 21132G   26177.09377250  .00000584  00000+0  16107-2 0  9999
2 50475  87.8879  19.2936 0002073  87.7755 272.3610 13.11416251216882
ONEWEB-0396             
1 50476U 21132H   26177.19654869  .00000136  00000+0  31096-3 0  9993
2 50476  87.9178 333.6623 0001834  88.9953 271.1389 13.18685618222822
ONEWEB-0397             
1 50477U 21132J   26176.98409506  .00000044  00000+0  79535-4 0  9995
2 50477  87.9176 333.7045 0001721  87.1970 272.9359 13.18686080222779
ONEWEB-0398             
1 50478U 21132K   26176.98524840 -.00000268  00000+0 -79264-3 0  9993
2 50478  87.8890  19.3068 0002061  93.0905 267.0458 13.11418386216768
ONEWEB-0399             
1 50479U 21132L   26177.27687310 -.00000465  00000+0 -13467-2 0  9990
2 50479  87.8889  19.2597 0001987  73.3386 286.7960 13.11416084216795
ONEWEB-0400             
1 50480U 21132M   26177.18980629  .00000080  00000+0  17069-3 0  9995
2 50480  87.9177 333.6536 0001997  97.9754 262.1605 13.18685769222792
ONEWEB-0401             
1 50481U 21132N   26177.15945602  .00000036  00000+0  58885-4 0  9998
2 50481  87.9177 333.6570 0001603  94.3252 265.8063 13.18685212222790
ONEWEB-0402             
1 50482U 21132P   26176.97060932 -.00000014  00000+0 -66989-4 0  9994
2 50482  87.9175 333.6836 0001381  89.3786 270.7504 13.18686825222799
ONEWEB-0403             
1 50483U 21132Q   26177.14765239  .00000051  00000+0  96462-4 0  9995
2 50483  87.9176 333.6724 0001931  90.5161 269.6192 13.18686102222775
ONEWEB-0404             
1 50484U 21132R   26177.25822366  .00000212  00000+0  56278-3 0  9992
2 50484  87.8883  19.2612 0002072  80.9918 279.1444 13.11415956216884
ONEWEB-0405             
1 50485U 21132S   26177.16110448  .00003373  00000+0  85247-2 0  9992
2 50485  87.9177 333.6550 0002576  96.1510 263.9916 13.18652203223172
ONEWEB-0406             
1 50486U 21132T   26177.15271002  .00000042  00000+0  74726-4 0  9998
2 50486  87.9173 333.6724 0002194  82.4677 277.6705 13.18686012222802
ONEWEB-0407             
1 50487U 21132U   26177.14597240  .00000106  00000+0  23523-3 0  9992
2 50487  87.9177 333.6660 0001728 100.3957 259.7371 13.18687351222749
ONEWEB-0409             
1 50488U 21132V   26177.25653029  .00000298  00000+0  80506-3 0  9999
2 50488  87.8887  19.2499 0002097  84.4780 275.6587 13.11414692216771
ONEWEB-0412             
1 50489U 21132W   26176.98240741 -.00000004  00000+0 -42218-4 0  9998
2 50489  87.9174 333.7067 0001542  91.5133 268.6176 13.18685999222817
ONEWEB-0413             
1 50490U 21132X   26177.13923094  .00000024  00000+0  27719-4 0  9996
2 50490  87.9166 333.6736 0001557  97.7211 262.4098 13.18686973222776
ONEWEB-0414             
1 50491U 21132Y   26176.97229405 -.00000024  00000+0 -92472-4 0  9993
2 50491  87.9177 333.6895 0001722  89.9467 270.1863 13.18685890222789
ONEWEB-0417             
1 50492U 21132Z   26176.98072288 -.00000030  00000+0 -10992-3 0  9993
2 50492  87.9169 333.7067 0002031  90.1492 269.9873 13.18686205222765
ONEWEB-0418             
1 50493U 21132AA  26176.99069322 -.00000050  00000+0 -16065-3 0  9999
2 50493  87.9174 333.7051 0002073  89.5325 270.6045 13.18685196222823
ONEWEB-0419             
1 50494U 21132AB  26177.16118736  .00000032  00000+0  49043-4 0  9995
2 50494  87.9176 333.6710 0002160  95.5660 264.5719 13.18666094222762
ONEWEB-0420             
1 50495U 21132AC  26176.97396894 -.00001404  00000+0 -35938-2 0  9999
2 50495  87.9167 333.7101 0001419 105.4000 254.7289 13.18694617222735
ONEWEB-0421             
1 50496U 21132AD  26177.19486621  .00000068  00000+0  14054-3 0  9993
2 50496  87.9170 333.6643 0001576  84.3698 275.7614 13.18684583222806
ONEWEB-0424             
1 50497U 21132AE  26177.15608504  .00000051  00000+0  97800-4 0  9999
2 50497  87.9175 333.6705 0002195  98.5566 261.5815 13.18685558222821
ONEWEB-0426             
1 50498U 21132AF  26177.19064259 -.00000023  00000+0 -91239-4 0  9998
2 50498  87.9176 333.6545 0001944  73.6587 286.4759 13.18684267222776
ONEWEB-0427             
1 50499U 21132AG  26177.15439990  .00000005  00000+0 -19626-4 0  9992
2 50499  87.9178 333.6508 0001986  89.4094 270.7266 13.18685388222798
ONEWEB-0429             
1 50500U 21132AH  26177.14090372  .00000081  00000+0  17394-3 0  9993
2 50500  87.9169 333.6770 0001760  97.7147 262.4185 13.18687579222762
ONEWEB-0430             
1 50501U 21132AJ  26176.97735708 -.00001155  00000+0 -29623-2 0  9995
2 50501  87.9175 333.7082 0001972 101.8321 258.3033 13.18675954222785
ONEWEB-0432             
1 50502U 21132AK  26177.18283126  .00000087  00000+0  19115-3 0  9999
2 50502  87.9175 333.6504 0002358 104.5510 255.5883 13.17154951222761
ONEWEB-0440             
1 50503U 21132AL  26177.14933580  .00000044  00000+0  78670-4 0  9997
2 50503  87.9177 333.6705 0001501  93.2660 266.8644 13.18686061222758
ONEWEB-0450             
1 50504U 21132AM  26177.14272905 -.00001723  00000+0 -44027-2 0  9999
2 50504  87.9164 333.6760 0001327 104.7194 255.4086 13.18695646222788
