OBJECT_NAME,OBJECT_ID,EPOCH,MEAN_MOTION,ECCENTRICITY,INCLINATION,RA_OF_ASC_NODE,ARG_OF_PERICENTER,MEAN_ANOMALY,EPHEMERIS_TYPE,CLASSIFICATION_TYPE,NORAD_CAT_ID,ELEMENT_SET_NO,REV_AT_EPOCH,BSTAR,MEAN_MOTION_DOT,MEAN_MOTION_DDOT
ONEWEB-0395,2021-132G,2026-06-26T02:15:01.944000,13.11416251,.00020738,87.8879,19.2936,87.7755,272.3610,0,U,50475,999,21688,.16107185E-2,.584E-5,0
ONEWEB-0396,2021-132H,2026-06-26T04:43:01.806816,13.18685618,.00018342,87.9178,333.6623,88.9953,271.1389,0,U,50476,999,22282,.31095755E-3,.136E-5,0
ONEWEB-0397,2021-132J,2026-06-25T23:37:05.813184,13.18686080,.00017218,87.9176,333.7045,87.1970,272.9359,0,U,50477,999,22277,.79535275E-4,.44E-6,0
ONEWEB-0398,2021-132K,2026-06-25T23:38:45.461760,13.11418386,.0002061,87.8890,19.3068,93.0905,267.0458,0,U,50478,999,21676,-.79264189E-3,-.268E-5,0
ONEWEB-0399,2021-132L,2026-06-26T06:38:41.835840,13.11416084,.00019878,87.8889,19.2597,73.3386,286.7960,0,U,50479,999,21679,-.13466563E-2,-.465E-5,0
ONEWEB-0400,2021-132M,2026-06-26T04:33:19.263456,13.18685769,.00019973,87.9177,333.6536,97.9754,262.1605,0,U,50480,999,22279,.1706943E-3,.8E-6,0
ONEWEB-0401,2021-132N,2026-06-26T03:49:37.000128,13.18685212,.00016035,87.9177,333.6570,94.3252,265.8063,0,U,50481,999,22279,.58885223E-4,.36E-6,0
ONEWEB-0402,2021-132P,2026-06-25T23:17:40.645248,13.18686825,.00013814,87.9175,333.6836,89.3786,270.7504,0,U,50482,999,22279,-.66988933E-4,-.14E-6,0
ONEWEB-0403,2021-132Q,2026-06-26T03:32:37.166496,13.18686102,.0001931,87.9176,333.6724,90.5161,269.6192,0,U,50483,999,22277,.96462315E-4,.51E-6,0
ONEWEB-0404,2021-132R,2026-06-26T06:11:50.524224,13.11415956,.00020725,87.8883,19.2612,80.9918,279.1444,0,U,50484,999,21688,.56277551E-3,.212E-5,0
ONEWEB-0405,2021-132S,2026-06-26T03:51:59.427072,13.18652203,.00025761,87.9177,333.6550,96.1510,263.9916,0,U,50485,999,22317,.85247192E-2,.3373E-4,0
ONEWEB-0406,2021-132T,2026-06-26T03:39:54.145728,13.18686012,.0002194,87.9173,333.6724,82.4677,277.6705,0,U,50486,999,22280,.74726058E-4,.42E-6,0
ONEWEB-0407,2021-132U,2026-06-26T03:30:12.015360,13.18687351,.00017283,87.9177,333.6660,100.3957,259.7371,0,U,50487,999,22274,.23522569E-3,.106E-5,0
ONEWEB-0409,2021-132V,2026-06-26T06:09:24.217056,13.11414692,.00020978,87.8887,19.2499,84.4780,275.6587,0,U,50488,999,21677,.80506259E-3,.298E-5,0
ONEWEB-0412,2021-132W,2026-06-25T23:34:40.000224,13.18685999,.00015423,87.9174,333.7067,91.5133,268.6176,0,U,50489,999,22281,-.42217914E-4,-.4E-7,0
ONEWEB-0413,2021-132X,2026-06-26T03:20:29.553216,13.18686973,.00015576,87.9166,333.6736,97.7211,262.4098,0,U,50490,999,22277,.27718503E-4,.24E-6,0
ONEWEB-0414,2021-132Y,2026-06-25T23:20:06.205920,13.18685890,.00017229,87.9177,333.6895,89.9467,270.1863,0,U,50491,999,22278,-.92472117E-4,-.24E-6,0
ONEWEB-0417,2021-132Z,2026-06-25T23:32:14.456832,13.18686205,.00020314,87.9169,333.7067,90.1492,269.9873,0,U,50492,999,22276,-.10992125E-3,-.3E-6,0
ONEWEB-0418,2021-132AA,2026-06-25T23:46:35.894208,13.18685196,.00020736,87.9174,333.7051,89.5325,270.6045,0,U,50493,999,22282,-.160653E-3,-.5E-6,0
ONEWEB-0419,2021-132AB,2026-06-26T03:52:06.587904,13.18666094,.00021601,87.9176,333.6710,95.5660,264.5719,0,U,50494,999,22276,.49042914E-4,.32E-6,0
ONEWEB-0420,2021-132AC,2026-06-25T23:22:30.916416,13.18694617,.00014199,87.9167,333.7101,105.4000,254.7289,0,U,50495,999,22273,-.35938144E-2,-.1404E-4,0
ONEWEB-0421,2021-132AD,2026-06-26T04:40:36.440544,13.18684583,.00015766,87.9170,333.6643,84.3698,275.7614,0,U,50496,999,22280,.14053725E-3,.68E-6,0
ONEWEB-0424,2021-132AE,2026-06-26T03:44:45.747456,13.18685558,.00021952,87.9175,333.6705,98.5566,261.5815,0,U,50497,999,22282,.97800097E-4,.51E-6,0
ONEWEB-0426,2021-132AF,2026-06-26T04:34:31.519776,13.18684267,.00019448,87.9176,333.6545,73.6587,286.4759,0,U,50498,999,22277,-.91238679E-4,-.23E-6,0
ONEWEB-0427,2021-132AG,2026-06-26T03:42:20.151360,13.18685388,.00019868,87.9178,333.6508,89.4094,270.7266,0,U,50499,999,22279,-.19626171E-4,.5E-7,0
ONEWEB-0429,2021-132AH,2026-06-26T03:22:54.081408,13.18687579,.00017603,87.9169,333.6770,97.7147,262.4185,0,U,50500,999,22276,.17393593E-3,.81E-6,0
ONEWEB-0430,2021-132AJ,2026-06-25T23:27:23.651712,13.18675954,.00019723,87.9175,333.7082,101.8321,258.3033,0,U,50501,999,22278,-.29623318E-2,-.1155E-4,0
ONEWEB-0432,2021-132AK,2026-06-26T04:23:16.620864,13.17154951,.00023582,87.9175,333.6504,104.5510,255.5883,0,U,50502,999,22276,.19114549E-3,.87E-6,0
ONEWEB-0440,2021-132AL,2026-06-26T03:35:02.613120,13.18686061,.00015018,87.9177,333.6705,93.2660,266.8644,0,U,50503,999,22275,.78669555E-4,.44E-6,0
ONEWEB-0450,2021-132AM,2026-06-26T03:25:31.789920,13.18695646,.00013274,87.9164,333.6760,104.7194,255.4086,0,U,50504,999,22278,-.4402737E-2,-.1723E-4,0
